[{"OBJECT_NAME":"JILIN-1 06","OBJECT_ID":"2017-074C","EPOCH":"2026-03-09T22:46:57.173376","MEAN_MOTION":15.32444387,"ECCENTRICITY":0.00061285,"INCLINATION":97.4715,"RA_OF_ASC_NODE":171.0354,"ARG_OF_PERICENTER":223.0031,"MEAN_ANOMALY":137.0732,"EPHEMERIS_TYPE":0,"CLASSIFICATION_TYPE":"U","NORAD_CAT_ID":43024,"ELEMENT_SET_NO":999,"REV_AT_EPOCH":45863,"BSTAR":0.00028431628,"MEAN_MOTION_DOT":8.833e-5,"MEAN_MOTION_DDOT":0},{"OBJECT_NAME":"STARLINK-32278","OBJECT_ID":"2024-138B","EPOCH":"2026-03-09T21:23:15.264096","MEAN_MOTION":15.30188317,"ECCENTRICITY":0.00011121,"INCLINATION":53.1602,"RA_OF_ASC_NODE":309.0031,"ARG_OF_PERICENTER":93.5607,"MEAN_ANOMALY":266.5521,"EPHEMERIS_TYPE":0,"CLASSIFICATION_TYPE":"U","NORAD_CAT_ID":60356,"ELEMENT_SET_NO":999,"REV_AT_EPOCH":9065,"BSTAR":4.7715253e-5,"MEAN_MOTION_DOT":1.054e-5,"MEAN_MOTION_DDOT":0}]
